IRIDIUM 119             
1 42959U 17061E   25169.56294892  .00000014  00000+0 -20822-5 0  9996
2 42959  86.3998 177.2121 0002461  92.5707 267.5770 14.34217751402698
IRIDIUM 107             
1 42960U 17061F   25170.41919853  .00000033  00000+0  47764-5 0  9999
2 42960  86.3992 176.8736 0002737  83.4437 276.7070 14.34217703402834
IRIDIUM 132             
1 42961U 17061G   25169.72785610  .00000028  00000+0  30978-5 0  9997
2 42961  86.3992 177.1444 0002435  87.5512 272.5963 14.34217609402727
IRIDIUM 136             
1 42962U 17061H   25169.55026348  .00000012  00000+0 -29337-5 0  9996
2 42962  86.3999 177.2234 0002501  90.8374 269.3108 14.34217730402719
IRIDIUM 139             
1 42963U 17061J   25170.25429120  .00000014  00000+0 -19906-5 0  9994
2 42963  86.4000 176.9854 0002442  85.2622 274.8853 14.34217641402827
IRIDIUM 125             
1 42964U 17061K   25170.45091131  .00000069  00000+0  17441-4 0  9994
2 42964  86.3995 176.9577 0002995  91.6091 268.5448 14.34218332402868
IRIDIUM 135             
1 43070U 17083A   25169.58781451 -.00000009  00000+0 -10147-4 0  9992
2 43070  86.3967 114.0343 0001972  84.6113 275.5307 14.34217429392036
IRIDIUM 138             
1 43071U 17083B   25169.54341746 -.00000087  00000+0 -38292-4 0  9995
2 43071  86.3959 113.7235 0002422  96.5976 263.5495 14.34216944392018
